GLOBALSTAR M075         
1 37192U 10054E   25034.74291559 -.00000099  00000+0  27296-4 0  9996
2 37192  51.9921 227.8451 0001049  89.3659 351.9169 12.62272724658990
GLOBALSTAR M073         
1 37193U 10054F   25034.75231891 -.00000077  00000+0  15059-3 0  9990
2 37193  52.0053 141.5341 0000862 103.1812  19.4369 12.62262886660985
GLOBALSTAR M083         
1 37739U 11033A   25034.44506806 -.00000083  00000+0  11532-3 0  9990
2 37739  51.9859  91.3820 0000374 114.6602 352.3880 12.62271438629962
GLOBALSTAR M088         
1 37740U 11033B   25034.09931159 -.00000092  00000+0  64420-4 0  9991
2 37740  51.9807 358.0331 0000234  61.6618  33.5719 12.62273536625461
GLOBALSTAR M091         
1 37741U 11033C   25034.20385010 -.00000075  00000+0  15894-3 0  9995
2 37741  52.0028 321.0385 0000425  37.8529 112.1077 12.62264288626260
GLOBALSTAR M085         
1 37742U 11033D   25034.80821459 -.00000088  00000+0  89727-4 0  9995
2 37742  51.9858 270.3564 0000746  61.4234  16.0733 12.62265052626853
GLOBALSTAR M081         
1 37743U 11033E   25034.92204038 -.00000081  00000+0  12526-3 0  9992
2 37743  51.9949 272.7128 0000930  57.3909  58.7163 12.62260223627019
GLOBALSTAR M089         
1 37744U 11033F   25034.71635738 -.00000095  00000+0  47873-4 0  9994
2 37744  51.9901 227.5915 0001261  89.1601 350.9221 12.62265985627832
